[{"OBJECT_NAME":"STARLINK-5289","OBJECT_ID":"2023-010K","EPOCH":"2026-03-09T22:19:21.404640","MEAN_MOTION":14.98336568,"ECCENTRICITY":0.00029853,"INCLINATION":70.0002,"RA_OF_ASC_NODE":43.7827,"ARG_OF_PERICENTER":267.5214,"MEAN_ANOMALY":92.5603,"EPHEMERIS_TYPE":0,"CLASSIFICATION_TYPE":"U","NORAD_CAT_ID":55278,"ELEMENT_SET_NO":999,"REV_AT_EPOCH":17281,"BSTAR":6.7435226e-5,"MEAN_MOTION_DOT":7.12e-6,"MEAN_MOTION_DDOT":0},{"OBJECT_NAME":"SL-16 DEB","OBJECT_ID":"1992-093HT","EPOCH":"2026-03-09T09:11:57.457824","MEAN_MOTION":14.90422202,"ECCENTRICITY":0.00468492,"INCLINATION":71.3296,"RA_OF_ASC_NODE":183.274,"ARG_OF_PERICENTER":9.9042,"MEAN_ANOMALY":350.3034,"EPHEMERIS_TYPE":0,"CLASSIFICATION_TYPE":"U","NORAD_CAT_ID":22571,"ELEMENT_SET_NO":999,"REV_AT_EPOCH":69043,"BSTAR":0.0054819504,"MEAN_MOTION_DOT":0.00054956,"MEAN_MOTION_DDOT":0}]
